$$SOE
2461302.500000000, A.D. 2026-Sep-19 00:00:00.0000, -2.275818047876148E+08, -4.234526006329983E+08, -6.421760737388760E+06,
2461309.500000000, A.D. 2026-Sep-26 00:00:00.0000, -2.187418625203012E+08, -4.279189982070626E+08, -8.323745335393459E+06,
2461316.500000000, A.D. 2026-Oct-03 00:00:00.0000, -2.098062831480503E+08, -4.321983514779434E+08, -1.022209061200580E+07,
2461323.500000000, A.D. 2026-Oct-10 00:00:00.0000, -2.007789059171569E+08, -4.362886531956935E+08, -1.211596334026057E+07,
2461330.500000000, A.D. 2026-Oct-17 00:00:00.0000, -1.916636164252152E+08, -4.401879779948681E+08, -1.400453110292324E+07,
2461337.500000000, A.D. 2026-Oct-24 00:00:00.0000, -1.824643449918429E+08, -4.438944835667383E+08, -1.588696268857777E+07,
2461344.500000000, A.D. 2026-Oct-31 00:00:00.0000, -1.731850649081404E+08, -4.474064119577189E+08, -1.776242851139686E+07,
2461351.500000000, A.D. 2026-Nov-07 00:00:00.0000, -1.638297902268564E+08, -4.507220909189584E+08, -1.963010107921717E+07,
2461358.500000000, A.D. 2026-Nov-14 00:00:00.0000, -1.544025728934235E+08, -4.538399344185026E+08, -2.148915545535141E+07,
2461365.500000000, A.D. 2026-Nov-21 00:00:00.0000, -1.449075010304742E+08, -4.567584416324859E+08, -2.333876949171233E+07,
2461372.500000000, A.D. 2026-Nov-28 00:00:00.0000, -1.353486993742270E+08, -4.594761974215971E+08, -2.517812398700765E+07,
2461379.500000000, A.D. 2026-Dec-05 00:00:00.0000, -1.257303282435620E+08, -4.619918749486014E+08, -2.700640315514970E+07,
2461386.500000000, A.D. 2026-Dec-12 00:00:00.0000, -1.160565808781052E+08, -4.643042373259849E+08, -2.882279516426352E+07,
2461393.500000000, A.D. 2026-Dec-19 00:00:00.0000, -1.063316810340748E+08, -4.664121382865717E+08, -3.062649257212687E+07,
2461400.500000000, A.D. 2026-Dec-26 00:00:00.0000, -9.655988098161641E+07, -4.683145227439249E+08, -3.241669271538261E+07,
2461407.500000000, A.D. 2027-Jan-02 00:00:00.0000, -8.674545962915072E+07, -4.700104274321598E+08, -3.419259809293303E+07,
2461414.500000000, A.D. 2027-Jan-09 00:00:00.0000, -7.689272065927109E+07, -4.714989816038713E+08, -3.595341675216398E+07,
2461421.500000000, A.D. 2027-Jan-16 00:00:00.0000, -6.700599064263537E+07, -4.727794077766855E+08, -3.769836268016502E+07,
2461428.500000000, A.D. 2027-Jan-23 00:00:00.0000, -5.708961708614639E+07, -4.738510225679054E+08, -3.942665620711508E+07,
2461435.500000000, A.D. 2027-Jan-30 00:00:00.0000, -4.714796623042914E+07, -4.747132376651254E+08, -4.113752444274840E+07,
2461442.500000000, A.D. 2027-Feb-06 00:00:00.0000, -3.718542017487616E+07, -4.753655605928246E+08, -4.283020175709504E+07,
2461449.500000000, A.D. 2027-Feb-13 00:00:00.0000, -2.720637379397596E+07, -4.758075940548743E+08, -4.450393016378441E+07,
2461456.500000000, A.D. 2027-Feb-20 00:00:00.0000, -1.721523381205789E+07, -4.760390346426856E+08, -4.615795945345402E+07,
2461463.500000000, A.D. 2027-Feb-27 00:00:00.0000, -7.216418642271748E+06, -4.760596741215771E+08, -4.779154746734497E+07,
2461470.500000000, A.D. 2027-Mar-06 00:00:00.0000, 2.785644027132317E+06, -4.758694013732390E+08, -4.940396063086623E+07,
2461477.500000000, A.D. 2027-Mar-13 00:00:00.0000, 1.278652029676254E+07, -4.754682029454072E+08, -5.099447443318990E+07,
2461484.500000000, A.D. 2027-Mar-20 00:00:00.0000, 2.278177263815366E+07, -4.748561630427153E+08, -5.256237381742078E+07,
2461491.500000000, A.D. 2027-Mar-27 00:00:00.0000, 3.276696219355502E+07, -4.740334635059750E+08, -5.410695354429173E+07,
2461498.500000000, A.D. 2027-Apr-03 00:00:00.0000, 4.273765099463810E+07, -4.730003838253658E+08, -5.562751855129826E+07,
2461505.500000000, A.D. 2027-Apr-10 00:00:00.0000, 5.268940416065094E+07, -4.717573011623816E+08, -5.712338431044850E+07,
2461512.500000000, A.D. 2027-Apr-17 00:00:00.0000, 6.261779209816999E+07, -4.703046903939414E+08, -5.859387718753609E+07,
2461519.500000000, A.D. 2027-Apr-24 00:00:00.0000, 7.251839278167191E+07, -4.686431242416202E+08, -6.003833481532159E+07,
2461526.500000000, A.D. 2027-May-01 00:00:00.0000, 8.238679441363136E+07, -4.667732734601054E+08, -6.145610650602236E+07,
2461533.500000000, A.D. 2027-May-08 00:00:00.0000, 9.221859876952443E+07, -4.646959063383535E+08, -6.284655367024362E+07,
2461540.500000000, A.D. 2027-May-15 00:00:00.0000, 1.020094237281491E+08, -4.624118865608079E+08, -6.420905002698386E+07,
2461547.500000000, A.D. 2027-May-22 00:00:00.0000, 1.117549034208418E+08, -4.599221720194021E+08, -6.554298167263383E+07,
2461554.500000000, A.D. 2027-May-29 00:00:00.0000, 1.214506893539963E+08, -4.572278160434509E+08, -6.684774743629596E+07,
2461561.500000000, A.D. 2027-Jun-05 00:00:00.0000, 1.310924533886385E+08, -4.543299679158899E+08, -6.812275934637776E+07,
2461568.500000000, A.D. 2027-Jun-12 00:00:00.0000, 1.406758905679833E+08, -4.512298722446964E+08, -6.936744298878494E+07,
2461575.500000000, A.D. 2027-Jun-19 00:00:00.0000, 1.501967214601331E+08, -4.479288681247625E+08, -7.058123780239508E+07,
2461582.500000000, A.D. 2027-Jun-26 00:00:00.0000, 1.596506942934349E+08, -4.444283883516543E+08, -7.176359735834563E+07,
2461589.500000000, A.D. 2027-Jul-03 00:00:00.0000, 1.690335870145741E+08, -4.407299586789502E+08, -7.291398963402343E+07,
2461596.500000000, A.D. 2027-Jul-10 00:00:00.0000, 1.783412093041430E+08, -4.368351971101111E+08, -7.403189728374329E+07,
2461603.500000000, A.D. 2027-Jul-17 00:00:00.0000, 1.875694045842364E+08, -4.327458132631395E+08, -7.511681791186675E+07,
2461610.500000000, A.D. 2027-Jul-24 00:00:00.0000, 1.967140521733008E+08, -4.284636078704729E+08, -7.616826436716634E+07,
2461617.500000000, A.D. 2027-Jul-31 00:00:00.0000, 2.057710699988569E+08, -4.239904721790669E+08, -7.718576507645118E+07,
2461624.500000000, A.D. 2027-Aug-07 00:00:00.0000, 2.147364176663622E+08, -4.193283861001796E+08, -7.816886430464277E+07,
2461631.500000000, A.D. 2027-Aug-14 00:00:00.0000, 2.236060975814173E+08, -4.144794153632054E+08, -7.911712215068546E+07,
2461638.500000000, A.D. 2027-Aug-21 00:00:00.0000, 2.323761547416863E+08, -4.094457110376346E+08, -8.003011461059949E+07,
2461645.500000000, A.D. 2027-Aug-28 00:00:00.0000, 2.410426786286325E+08, -4.042295102200653E+08, -8.090743392395344E+07,
2461652.500000000, A.D. 2027-Sep-04 00:00:00.0000, 2.496018060171966E+08, -3.988331353854529E+08, -8.174868889120881E+07,
2461659.500000000, A.D. 2027-Sep-11 00:00:00.0000, 2.580497233068080E+08, -3.932589930655661E+08, -8.255350508830473E+07,
2461666.500000000, A.D. 2027-Sep-18 00:00:00.0000, 2.663826685053381E+08, -3.875095725059819E+08, -8.332152504404137E+07,
2461673.500000000, A.D. 2027-Sep-25 00:00:00.0000, 2.745969330932811E+08, -3.815874443800948E+08, -8.405240840776715E+07,
2461680.500000000, A.D. 2027-Oct-02 00:00:00.0000, 2.826888638416309E+08, -3.754952595332437E+08, -8.474583211212778E+07,
2461687.500000000, A.D. 2027-Oct-09 00:00:00.0000, 2.906548646042871E+08, -3.692357477618821E+08, -8.540149053336263E+07,
2461694.500000000, A.D. 2027-Oct-16 00:00:00.0000, 2.984913981467100E+08, -3.628117166827229E+08, -8.601909565940624E+07,
2461701.500000000, A.D. 2027-Oct-23 00:00:00.0000, 3.061949882699043E+08, -3.562260506975982E+08, -8.659837729013988E+07,
2461708.500000000, A.D. 2027-Oct-30 00:00:00.0000, 3.137622226044034E+08, -3.494817094446586E+08, -8.713908325456187E+07,
2461715.500000000, A.D. 2027-Nov-06 00:00:00.0000, 3.211897549105883E+08, -3.425817246099692E+08, -8.764097944639760E+07,
2461722.500000000, A.D. 2027-Nov-13 00:00:00.0000, 3.284743048982751E+08, -3.355291971777276E+08, -8.810384966585104E+07,
2461729.500000000, A.D. 2027-Nov-20 00:00:00.0000, 3.356126584650818E+08, -3.283272973054883E+08, -8.852749571194513E+07,
2461736.500000000, A.D. 2027-Nov-27 00:00:00.0000, 3.426016699695157E+08, -3.209792638603948E+08, -8.891173763120568E+07,
2461743.500000000, A.D. 2027-Dec-04 00:00:00.0000, 3.494382645137491E+08, -3.134884027035827E+08, -8.925641386209826E+07,
2461750.500000000, A.D. 2027-Dec-11 00:00:00.0000, 3.561194396837382E+08, -3.058580846873121E+08, -8.956138130300663E+07,
2461757.500000000, A.D. 2027-Dec-18 00:00:00.0000, 3.626422670204253E+08, -2.980917437039230E+08, -8.982651535621157E+07,
2461764.500000000, A.D. 2027-Dec-25 00:00:00.0000, 3.690038933738242E+08, -2.901928747890215E+08, -9.005170996186356E+07,
2461771.500000000, A.D. 2028-Jan-01 00:00:00.0000, 3.752015421818733E+08, -2.821650322655465E+08, -9.023687762481450E+07,
$$EOE